COSMOS 2361 [-]         
1 25590U 98076A   22244.53623751  .00000054  00000+0  42338-4 0  9999
2 25590  82.9368 149.9346 0031673 359.6100 174.2618 13.73026174186973
COSMOS 2378 [-]         
1 26818U 01023A   22243.77073020  .00000018  00000+0  37177-5 0  9998
2 26818  82.9307 168.3961 0032126 307.1947  52.6285 13.73973960 64652
COSMOS 2389 [-]         
1 27436U 02026A   22244.12370873  .00000034  00000+0  19558-4 0  9995
2 27436  82.9492 114.0167 0046669 163.0125 308.5867 13.74980700 16820
COSMOS 2398 [-]         
1 27818U 03023A   22243.59126695  .00000050  00000+0  38751-4 0  9992
2 27818  82.9452  76.2388 0030645 201.2910 158.6974 13.72215833963693
COSMOS 2407 [+]         
1 28380U 04028A   22244.12513874  .00000014  00000+0 -18331-5 0  9996
2 28380  82.9619  20.3955 0039322 163.9156 196.3267 13.76118347909566
COSMOS 2414 [+]         
1 28521U 05002A   22244.32021849  .00000026  00000+0  93584-5 0  9999
2 28521  82.9518  10.8704 0039612 319.4865  40.3356 13.87663323892079
COSMOS 2429 [-]         
1 32052U 07038A   22244.12718315  .00000055  00000+0  41516-4 0  9992
2 32052  82.9829 146.5716 0039189 141.2102 219.1879 13.74967409751407
COSMOS 2454 [-]         
1 35635U 09039A   22244.40148149  .00000024  00000+0  66449-5 0  9997
2 35635  82.9597 357.0180 0017888 261.5630  98.3508 13.89692563665241
COSMOS 2463 [+]         
1 36519U 10017A   22244.39188517  .00000054  00000+0  43435-4 0  9990
2 36519  82.9634 187.0305 0036701  14.4670 102.9964 13.71478642618190
